{
    "links": {
        "self": "http://www.neowsapp.com/rest/v1/neo/3775712?api_key=iIulBulltgU6a56xZRHN4H3l9WmuAYTsLGpBGhQ2"
    },
    "id": "3775712",
    "neo_reference_id": "3775712",
    "name": "(2017 MF1)",
    "designation": "2017 MF1",
    "nasa_jpl_url": "http://ssd.jpl.nasa.gov/sbdb.cgi?sstr=3775712",
    "absolute_magnitude_h": 23.7,
    "estimated_diameter": {
        "kilometers": {
            "estimated_diameter_min": 0.0483676488,
            "estimated_diameter_max": 0.1081533507
        },
        "meters": {
            "estimated_diameter_min": 48.3676488219,
            "estimated_diameter_max": 108.1533506775
        },
        "miles": {
            "estimated_diameter_min": 0.0300542543,
            "estimated_diameter_max": 0.0672033557
        },
        "feet": {
            "estimated_diameter_min": 158.6865169607,
            "estimated_diameter_max": 354.8338390368
        }
    },
    "is_potentially_hazardous_asteroid": false,
    "close_approach_data": [
        {
            "close_approach_date": "2017-06-09",
            "close_approach_date_full": "2017-Jun-09 06:58",
            "epoch_date_close_approach": 1496991480000,
            "relative_velocity": {
                "kilometers_per_second": "5.7578016505",
                "kilometers_per_hour": "20728.0859417431",
                "miles_per_hour": "12879.6265119681"
            },
            "miss_distance": {
                "astronomical": "0.1864961018",
                "lunar": "72.5469836002",
                "kilometers": "27899419.592583166",
                "miles": "17335895.4586770508"
            },
            "orbiting_body": "Earth"
        }
    ],
    "orbital_data": {
        "orbit_id": "5",
        "orbit_determination_date": "2020-10-31 06:32:24",
        "first_observation_date": "2017-06-21",
        "last_observation_date": "2017-07-04",
        "data_arc_in_days": 13,
        "observations_used": 19,
        "orbit_uncertainty": "8",
        "minimum_orbit_intersection": ".163785",
        "jupiter_tisserand_invariant": "3.474",
        "epoch_osculation": "2457928.5",
        "eccentricity": ".4732459287560008",
        "semi_major_axis": "2.23440599527364",
        "inclination": "7.159860168863258",
        "ascending_node_longitude": "270.0920212769322",
        "orbital_period": "1219.948672672715",
        "perihelion_distance": "1.17698245482239",
        "perihelion_argument": "346.9999409586649",
        "aphelion_distance": "3.291829535724891",
        "perihelion_time": "2457907.550484101980",
        "mean_anomaly": "6.182084453409214",
        "mean_motion": ".2950943822999509",
        "equinox": "J2000",
        "orbit_class": {
            "orbit_class_type": "AMO",
            "orbit_class_description": "Near-Earth asteroid orbits similar to that of 1221 Amor",
            "orbit_class_range": "1.017 AU < q (perihelion) < 1.3 AU"
        }
    },
    "is_sentry_object": false
}